$$SOE
2460154.500000000, A.D. 2023-Jul-29 00:00:00.0000, -2.953445957518003E+08, -1.966424892036611E+08, 1.119245888915633E+07,
2460161.500000000, A.D. 2023-Aug-05 00:00:00.0000, -2.899136391337131E+08, -2.066225595573000E+08, 1.037572256520204E+07,
2460168.500000000, A.D. 2023-Aug-12 00:00:00.0000, -2.841712341983142E+08, -2.163806566331241E+08, 9.547838350833669E+06,
2460175.500000000, A.D. 2023-Aug-19 00:00:00.0000, -2.781264701659360E+08, -2.259085184083702E+08, 8.709793938586518E+06,
2460182.500000000, A.D. 2023-Aug-26 00:00:00.0000, -2.717885410059152E+08, -2.351982485085530E+08, 7.862567711004555E+06,
2460189.500000000, A.D. 2023-Sep-02 00:00:00.0000, -2.651667335595623E+08, -2.442423081501641E+08, 7.007128296197295E+06,
2460196.500000000, A.D. 2023-Sep-09 00:00:00.0000, -2.582704165474985E+08, -2.530335081404970E+08, 6.144434175400048E+06,
2460203.500000000, A.D. 2023-Sep-16 00:00:00.0000, -2.511090302511278E+08, -2.615650010408644E+08, 5.275433317433327E+06,
2460210.500000000, A.D. 2023-Sep-23 00:00:00.0000, -2.436920764099861E+08, -2.698302732498111E+08, 4.401062820606560E+06,
2460217.500000000, A.D. 2023-Sep-30 00:00:00.0000, -2.360291086326519E+08, -2.778231358538349E+08, 3.522248686074138E+06,
2460224.500000000, A.D. 2023-Oct-07 00:00:00.0000, -2.281297256324720E+08, -2.855377148220857E+08, 2.639905889878049E+06,
2460231.500000000, A.D. 2023-Oct-14 00:00:00.0000, -2.200035662067373E+08, -2.929684438900573E+08, 1.754938383371070E+06,
2460238.500000000, A.D. 2023-Oct-21 00:00:00.0000, -2.116603026927352E+08, -3.001100585595344E+08, 8.682388531196713E+05,
2460245.500000000, A.D. 2023-Oct-28 00:00:00.0000, -2.031096342886066E+08, -3.069575889792334E+08, -1.931144762288034E+04,
2460252.500000000, A.D. 2023-Nov-04 00:00:00.0000, -1.943612814521692E+08, -3.135063524958222E+08, -9.068427472172081E+05,
2460259.500000000, A.D. 2023-Nov-11 00:00:00.0000, -1.854249811629857E+08, -3.197519464913188E+08, -1.793496752017617E+06,
2460266.500000000, A.D. 2023-Nov-18 00:00:00.0000, -1.763104827914375E+08, -3.256902415861340E+08, -2.678426619217455E+06,
2460273.500000000, A.D. 2023-Nov-25 00:00:00.0000, -1.670275444672594E+08, -3.313173751998883E+08, -3.560796913856104E+06,
2460280.500000000, A.D. 2023-Dec-02 00:00:00.0000, -1.575859298873516E+08, -3.366297454943925E+08, -4.439783556049883E+06,
2460287.500000000, A.D. 2023-Dec-09 00:00:00.0000, -1.479954054546974E+08, -3.416240057682260E+08, -5.314573772748679E+06,
2460294.500000000, A.D. 2023-Dec-16 00:00:00.0000, -1.382657374312462E+08, -3.462970592986727E+08, -6.184366081646234E+06,
2460301.500000000, A.D. 2023-Dec-23 00:00:00.0000, -1.284066887275726E+08, -3.506460539503343E+08, -7.048370285276413E+06,
2460308.500000000, A.D. 2023-Dec-30 00:00:00.0000, -1.184280166416053E+08, -3.546683755060534E+08, -7.905807268826202E+06,
2460315.500000000, A.D. 2024-Jan-06 00:00:00.0000, -1.083394732909451E+08, -3.583616420842423E+08, -8.755908634282082E+06,
2460322.500000000, A.D. 2024-Jan-13 00:00:00.0000, -9.815080553897548E+07, -3.617237014545460E+08, -9.597916611947224E+06,
2460329.500000000, A.D. 2024-Jan-20 00:00:00.0000, -8.787175316702680E+07, -3.647526281737397E+08, -1.043108411166860E+07,
2460336.500000000, A.D. 2024-Jan-27 00:00:00.0000, -7.751204729921068E+07, -3.674467198943485E+08, -1.125467467635609E+07,
2460343.500000000, A.D. 2024-Feb-03 00:00:00.0000, -6.708140948747088E+07, -3.698044937972490E+08, -1.206796237784097E+07,
2460350.500000000, A.D. 2024-Feb-10 00:00:00.0000, -5.658955116016494E+07, -3.718246834397689E+08, -1.287023170593476E+07,
2460357.500000000, A.D. 2024-Feb-17 00:00:00.0000, -4.604617327668397E+07, -3.735062360085812E+08, -1.366077746416005E+07,
2460364.500000000, A.D. 2024-Feb-24 00:00:00.0000, -3.546096613203177E+07, -3.748483099573980E+08, -1.443890467546114E+07,
2460371.500000000, A.D. 2024-Mar-02 00:00:00.0000, -2.484360925962013E+07, -3.758502730571955E+08, -1.520392850441256E+07,
2460378.500000000, A.D. 2024-Mar-09 00:00:00.0000, -1.420377126980270E+07, -3.765117009204323E+08, -1.595517421513408E+07,
2460385.500000000, A.D. 2024-Mar-16 00:00:00.0000, -3.551109206350742E+06, -3.768323758051394E+08, -1.669197718667266E+07,
2460392.500000000, A.D. 2024-Mar-23 00:00:00.0000, 7.104732494493987E+06, -3.768122845953202E+08, -1.741368288743097E+07,
2460399.500000000, A.D. 2024-Mar-30 00:00:00.0000, 1.775412121685698E+07, -3.764516159876412E+08, -1.811964660673693E+07,
2460406.500000000, A.D. 2024-Apr-06 00:00:00.0000, 2.838743382144972E+07, -3.757507602512246E+08, -1.880923324348912E+07,
2460413.500000000, A.D. 2024-Apr-13 00:00:00.0000, 3.899505631316665E+07, -3.747103107231059E+08, -1.948181741041079E+07,
2460420.500000000, A.D. 2024-Apr-20 00:00:00.0000, 4.956738458488999E+07, -3.733310643623918E+08, -2.013678354888135E+07,
2460427.500000000, A.D. 2024-Apr-27 00:00:00.0000, 6.009482473758419E+07, -3.716140219231101E+08, -2.077352596203242E+07,
2460434.500000000, A.D. 2024-May-04 00:00:00.0000, 7.056779308217824E+07, -3.695603884471694E+08, -2.139144883262491E+07,
2460441.500000000, A.D. 2024-May-11 00:00:00.0000, 8.097671607924369E+07, -3.671715741772042E+08, -2.198996625685807E+07,
2460448.500000000, A.D. 2024-May-18 00:00:00.0000, 9.131203031612493E+07, -3.644491958650736E+08, -2.256850230082950E+07,
2460455.500000000, A.D. 2024-May-25 00:00:00.0000, 1.015641825647507E+08, -3.613950784798209E+08, -2.312649108350974E+07,
2460462.500000000, A.D. 2024-Jun-01 00:00:00.0000, 1.117236300000044E+08, -3.580112573698893E+08, -2.366337689752361E+07,
2460469.500000000, A.D. 2024-Jun-08 00:00:00.0000, 1.217808408456882E+08, -3.542999809018566E+08, -2.417861439335485E+07,
2460476.500000000, A.D. 2024-Jun-15 00:00:00.0000, 1.317262958676143E+08, -3.502637130309931E+08, -2.467166882018356E+07,
2460483.500000000, A.D. 2024-Jun-22 00:00:00.0000, 1.415504897277222E+08, -3.459051346279488E+08, -2.514201613619438E+07,
2460490.500000000, A.D. 2024-Jun-29 00:00:00.0000, 1.512439300963656E+08, -3.412271453788956E+08, -2.558914294360118E+07,
2460497.500000000, A.D. 2024-Jul-06 00:00:00.0000, 1.607971371880458E+08, -3.362328687245575E+08, -2.601254669404860E+07,
2460504.500000000, A.D. 2024-Jul-13 00:00:00.0000, 1.702006456919450E+08, -3.309256570097641E+08, -2.641173611357704E+07,
2460511.500000000, A.D. 2024-Jul-20 00:00:00.0000, 1.794450071336413E+08, -3.253090956908554E+08, -2.678623157218911E+07,
2460518.500000000, A.D. 2024-Jul-27 00:00:00.0000, 1.885207920343500E+08, -3.193870075539287E+08, -2.713556541713244E+07,
2460525.500000000, A.D. 2024-Aug-03 00:00:00.0000, 1.974185921648292E+08, -3.131634573103312E+08, -2.745928232646121E+07,
2460532.500000000, A.D. 2024-Aug-10 00:00:00.0000, 2.061290230862940E+08, -3.066427565645726E+08, -2.775693969959414E+07,
2460539.500000000, A.D. 2024-Aug-17 00:00:00.0000, 2.146427270539155E+08, -2.998294691235916E+08, -2.802810808898114E+07,
2460546.500000000, A.D. 2024-Aug-24 00:00:00.0000, 2.229503763397359E+08, -2.927284166595913E+08, -2.827237167919940E+07,
2460553.500000000, A.D. 2024-Aug-31 00:00:00.0000, 2.310426771208405E+08, -2.853446847764269E+08, -2.848932883131453E+07,
2460560.500000000, A.D. 2024-Sep-07 00:00:00.0000, 2.389103743307691E+08, -2.776836293414596E+08, -2.867859271799983E+07,
2460567.500000000, A.D. 2024-Sep-14 00:00:00.0000, 2.465442575928008E+08, -2.697508820762621E+08, -2.883979197803804E+07,
2460574.500000000, A.D. 2024-Sep-21 00:00:00.0000, 2.539351662379301E+08, -2.615523549810016E+08, -2.897257117229924E+07,
2460581.500000000, A.D. 2024-Sep-28 00:00:00.0000, 2.610739929500628E+08, -2.530942468010494E+08, -2.907659126176117E+07,
2460588.500000000, A.D. 2024-Oct-05 00:00:00.0000, 2.679516897408028E+08, -2.443830515095224E+08, -2.915153044537877E+07,
2460595.500000000, A.D. 2024-Oct-12 00:00:00.0000, 2.745592759301451E+08, -2.354255658005849E+08, -2.919708508262655E+07,
2460602.500000000, A.D. 2024-Oct-19 00:00:00.0000, 2.808878464203555E+08, -2.262288958385627E+08, -2.921297056367648E+07,
2460609.500000000, A.D. 2024-Oct-26 00:00:00.0000, 2.869285802685578E+08, -2.168004640357220E+08, -2.919892219100726E+07,
2460616.500000000, A.D. 2024-Nov-02 00:00:00.0000, 2.926727498522691E+08, -2.071480159752176E+08, -2.915469610914971E+07,
2460623.500000000, A.D. 2024-Nov-09 00:00:00.0000, 2.981117307591195E+08, -1.972796274221460E+08, -2.908007029020673E+07,
2460630.500000000, A.D. 2024-Nov-16 00:00:00.0000, 3.032370124587158E+08, -1.872037113793662E+08, -2.897484557737909E+07,
2460637.500000000, A.D. 2024-Nov-23 00:00:00.0000, 3.080402098349307E+08, -1.769290251864184E+08, -2.883884679443140E+07,
2460644.500000000, A.D. 2024-Nov-30 00:00:00.0000, 3.125130758212451E+08, -1.664646776444657E+08, -2.867192394340001E+07,
2460651.500000000, A.D. 2024-Dec-07 00:00:00.0000, 3.166475156000189E+08, -1.558201356828902E+08, -2.847395349480004E+07,
2460658.500000000, A.D. 2024-Dec-14 00:00:00.0000, 3.204356017242502E+08, -1.450052292828311E+08, -2.824483960763971E+07,
2460665.500000000, A.D. 2024-Dec-21 00:00:00.0000, 3.238695878847826E+08, -1.340301558397824E+08, -2.798451516808760E+07,
2460672.500000000, A.D. 2024-Dec-28 00:00:00.0000, 3.269419233240895E+08, -1.229054868643916E+08, -2.769294306905144E+07,
2460679.500000000, A.D. 2025-Jan-04 00:00:00.0000, 3.296452705174403E+08, -1.116421745640944E+08, -2.737011777242743E+07,
2460686.500000000, A.D. 2025-Jan-11 00:00:00.0000, 3.319725243238321E+08, -1.002515565573059E+08, -2.701606684855557E+07,
2460693.500000000, A.D. 2025-Jan-18 00:00:00.0000, 3.339168317102050E+08, -8.874535954451880E+07, -2.663085248062595E+07,
2460700.500000000, A.D. 2025-Jan-25 00:00:00.0000, 3.354716123075108E+08, -7.713570230931292E+07, -2.621457299129153E+07,
2460707.500000000, A.D. 2025-Feb-01 00:00:00.0000, 3.366305799972853E+08, -6.543509797067520E+07, -2.576736440677434E+07,
2460714.500000000, A.D. 2025-Feb-08 00:00:00.0000, 3.373877655896185E+08, -5.365645535125943E+07, -2.528940205691694E+07,
$$EOE